[{"OBJECT_NAME":"TK-2","OBJECT_ID":"2022-031A","EPOCH":"2026-03-09T22:51:17.143200","MEAN_MOTION":15.02943491,"ECCENTRICITY":0.00164117,"INCLINATION":97.8366,"RA_OF_ASC_NODE":263.9365,"ARG_OF_PERICENTER":100.3205,"MEAN_ANOMALY":259.9871,"EPHEMERIS_TYPE":0,"CLASSIFICATION_TYPE":"U","NORAD_CAT_ID":52150,"ELEMENT_SET_NO":999,"REV_AT_EPOCH":21555,"BSTAR":0.00040164474,"MEAN_MOTION_DOT":5.349e-5,"MEAN_MOTION_DDOT":0},{"OBJECT_NAME":"STARLINK-6196","OBJECT_ID":"2023-064AR","EPOCH":"2026-03-09T11:19:27.284448","MEAN_MOTION":14.98333961,"ECCENTRICITY":0.00036414,"INCLINATION":70.0005,"RA_OF_ASC_NODE":104.8614,"ARG_OF_PERICENTER":271.9465,"MEAN_ANOMALY":88.1277,"EPHEMERIS_TYPE":0,"CLASSIFICATION_TYPE":"U","NORAD_CAT_ID":56487,"ELEMENT_SET_NO":999,"REV_AT_EPOCH":15620,"BSTAR":0.00024760709,"MEAN_MOTION_DOT":2.863e-5,"MEAN_MOTION_DDOT":0}]
